ONEWEB-0306             
1 49188U 21083C   24044.77428477  .00000108  00000+0  24169-3 0  9997
2 49188  87.9243 145.4849 0001974 112.8224 247.3117 13.18685643117415
ONEWEB-0307             
1 49189U 21083D   24044.75162554  .00000194  00000+0  49703-3 0  9993
2 49189  87.9001 130.3381 0001731 103.0507 257.0815 13.13471036118765
ONEWEB-0320             
1 49190U 21083E   24044.78060875 -.00000126  00000+0 -35314-3 0  9991
2 49190  87.9243 145.5061 0001700 103.4013 256.7309 13.18685618117378
ONEWEB-0321             
1 49191U 21083F   24044.81585380 -.00000005  00000+0 -43370-4 0  9997
2 49191  87.9141  84.4914 0002120  86.2762 273.8614 13.20771188124053
ONEWEB-0322             
1 49192U 21083G   24044.74687483  .00000095  00000+0  22540-3 0  9999
2 49192  87.9001 130.3276 0001795  86.7714 273.3620 13.13470432118752
ONEWEB-0324             
1 49193U 21083H   24044.84225828 -.00000179  00000+0 -48782-3 0  9993
2 49193  87.9244 145.4767 0001399 107.0156 253.1129 13.18685324117405
ONEWEB-0325             
1 49194U 21083J   24044.77113799  .00000016  00000+0  72628-5 0  9995
2 49194  87.9245 145.5036 0001800 104.3650 255.7683 13.18687588117400
ONEWEB-0326             
1 49195U 21083K   24044.78534405 -.00000201  00000+0 -54293-3 0  9992
2 49195  87.9242 145.5025 0001695 128.0597 232.0688 13.18686258117395
